NMARS
1 29662U 06055D   07123.76661677  .01771625  12032-4  49203-3 0  2557
2 29662 051.6270 317.1225 0007050 244.9936 115.0336 16.27061286 21223
FCAL
1 29667U 06055J   07123.82060316  .00020142  00000-0  79767-4 0  1277
2 29667 051.6371 326.7014 0015610 166.8629 193.2782 15.86590893 20951
FALCON
1 30776U 07006E   07122.40977818  .00000418  00000-0  33803-4 0 00469
2 30776 035.4324 130.1655 0000872 031.7595 328.3174 15.02691488008161
MAST
1 31126U 07012K   07123.43817764  .00000394  00000-0  10000-3 0   223
2 31126 098.0854 198.1180 0095455 163.4552 196.9777 14.53335617  2355
