Satellite: NMARS
Catalog number: 29662
Epoch time:      07123.76661677
Element set:     255
Inclination:      051.6270 deg
RA of node:       317.1225 deg
Eccentricity:    0.0007050
Arg of perigee:   244.9936 deg
Mean anomaly:     115.0336 deg
Mean motion:   16.27061286 rev/day
Decay rate:   1.771625e-02 rev/day^2
Epoch rev:            2122
Checksum:              286

Satellite: FCAL
Catalog number: 29667
Epoch time:      07123.82060316
Element set:     127
Inclination:      051.6371 deg
RA of node:       326.7014 deg
Eccentricity:    0.0015610
Arg of perigee:   166.8629 deg
Mean anomaly:     193.2782 deg
Mean motion:   15.86590893 rev/day
Decay rate:     2.0142e-04 rev/day^2
Epoch rev:            2095
Checksum:              294

Satellite: FALCON
Catalog number: 30776
Epoch time:      07122.40977818
Element set:    0046
Inclination:      035.4324 deg
RA of node:       130.1655 deg
Eccentricity:    0.0000872
Arg of perigee:   031.7595 deg
Mean anomaly:     328.3174 deg
Mean motion:   15.02691488 rev/day
Decay rate:       4.18e-06 rev/day^2
Epoch rev:           00816
Checksum:              287

Satellite: MAST
Catalog number: 31126
Epoch time:      07123.43817764
Element set:      22
Inclination:      098.0854 deg
RA of node:       198.1180 deg
Eccentricity:    0.0095455
Arg of perigee:   163.4552 deg
Mean anomaly:     196.9777 deg
Mean motion:   14.53335617 rev/day
Decay rate:       3.94e-06 rev/day^2
Epoch rev:             235
Checksum:              305

